SatCatId,ObjectName,LaunchYear,OrbitalPeriod,LaunchMass,StatusCode,Inclination,Status,UcsData,OrbitClassEstimated,LaunchSiteCountry,Owner,UseType,Purpose,LaunchVehicleClass,TLE1,TLE2,MeanMotion,Eccentricity,OrbitClass
46757,STARLINK-1926,2020,95.59,260.0,+,53.05,Active,1,LEO,USA,USA,Commercial,Communications,Falcon,1 46757U 20074U   23276.53553633  .00005541  00000+0  39074-3 0  9995,2 46757  53.0551 353.9389 0001605 100.5946 259.5224 15.06385625162758,15.06385625,0.0001605,LEO
46758,STARLINK-1928,2020,95.59,260.0,+,53.05,Active,1,LEO,USA,USA,Commercial,Communications,Falcon,1 46758U 20074V   23276.53919422  .00022937  00000+0  15541-2 0  9998,2 46758  53.0544 353.6815 0001611  92.1717 267.9457 15.06390990162742,15.0639099,0.0001611,LEO
46759,STARLINK-1833,2020,95.59,260.0,+,53.06,Active,1,LEO,USA,USA,Commercial,Communications,Falcon,1 46759U 20074W   23276.53457785  .00002629  00000+0  19533-3 0  9990,2 46759  53.0559   3.7038 0001454  96.6168 263.4987 15.06399838162337,15.06399838,0.0001454,LEO
46760,STARLINK-1896,2020,95.59,260.0,+,53.06,Active,1,LEO,USA,USA,Commercial,Communications,Falcon,1 46760U 20074X   23276.54564378  .00034121  00000+0  22986-2 0  9997,2 46760  53.0566   3.6513 0001364  88.2368 271.8777 15.06398895162605,15.06398895,0.0001364,LEO
46764,STARLINK-1903,2020,95.59,260.0,+,53.06,Active,1,LEO,USA,USA,Commercial,Communications,Falcon,1 46764U 20074AB  23276.53826824  .00031748  00000+0  21401-2 0  9990,2 46764  53.0559   3.6856 0001391  86.3377 273.7770 15.06410155162620,15.06410155,0.0001391,LEO
46765,STARLINK-1906,2020,95.59,260.0,+,53.06,Active,1,LEO,USA,USA,Commercial,Communications,Falcon,1 46765U 20074AC  23276.52721261 -.00000280  00000+0  88276-7 0  9995,2 46765  53.0569   3.7322 0001479  97.2042 262.9115 15.06392730162326,15.0639273,0.0001479,LEO
46766,STARLINK-1916,2020,95.59,260.0,+,53.06,Active,1,LEO,USA,USA,Commercial,Communications,Falcon,1 46766U 20074AD  23276.51984488  .00027918  00000+0  18860-2 0  9990,2 46766  53.0556   3.7679 0001679  92.4147 267.7034 15.06394558162607,15.06394558,0.0001679,LEO
46767,STARLINK-1917,2020,95.59,260.0,+,53.06,Active,1,LEO,USA,USA,Commercial,Communications,Falcon,1 46767U 20074AE  23276.54933256  .00011404  00000+0  78366-3 0  9992,2 46767  53.0549   3.6381 0001639  90.3893 269.7284 15.06380151162603,15.06380151,0.0001639,LEO
46768,STARLINK-1918,2020,95.59,260.0,+,53.06,Active,1,LEO,USA,USA,Commercial,Communications,Falcon,1 46768U 20074AF  23276.55301839  .00007540  00000+0  52477-3 0  9991,2 46768  53.0561   3.6219 0001677  94.3041 265.8140 15.06383743162607,15.06383743,0.0001677,LEO
46770,STARLINK-1932,2020,95.59,260.0,+,53.06,Active,1,LEO,USA,USA,Commercial,Communications,Falcon,1 46770U 20074AH  23276.56045928  .00012181  00000+0  83557-3 0  9999,2 46770  53.0551   4.1385 0001793  99.9716 260.1475 15.06386236162595,15.06386236,0.0001793,LEO
46772,STARLINK-1936,2020,95.59,260.0,+,53.06,Active,1,LEO,USA,USA,Commercial,Communications,Falcon,1 46772U 20074AK  23276.55943416 -.00000001  00000+0  18860-4 0  9994,2 46772  53.0550   3.5813 0001575  93.6734 266.4435 15.06392494162604,15.06392494,0.0001575,LEO
46779,STARLINK-1798,2020,95.59,260.0,+,53.05,Active,1,LEO,USA,USA,Commercial,Communications,Falcon,1 46779U 20074AS  23276.45764307  .00005199  00000+0  36775-3 0  9996,2 46779  53.0544 339.0480 0001576  83.0412 277.0756 15.06388580162939,15.0638858,0.0001576,LEO
46780,STARLINK-1832,2020,95.59,260.0,+,53.05,Active,1,LEO,USA,USA,Commercial,Communications,Falcon,1 46780U 20074AT  23276.51293447  .00033874  00000+0  22824-2 0  9997,2 46780  53.0542 338.7997 0001449  92.6095 267.5060 15.06395195162943,15.06395195,0.0001449,LEO
46781,STARLINK-1834,2020,95.59,260.0,+,53.05,Active,1,LEO,USA,USA,Commercial,Communications,Falcon,1 46781U 20074AU  23276.46409659  .00026485  00000+0  17910-2 0  9996,2 46781  53.0537 349.0213 0001294  99.0065 261.1070 15.06384858162800,15.06384858,0.0001294,LEO
46782,STARLINK-1835,2020,95.59,260.0,+,53.06,Active,1,LEO,USA,USA,Commercial,Communications,Falcon,1 46782U 20074AV  23276.50187468  .00008881  00000+0  61448-3 0  9999,2 46782  53.0542 338.8478 0001455 107.5783 252.5365 15.06393032162947,15.06393032,0.0001455,LEO
46783,STARLINK-1851,2020,95.59,260.0,+,53.05,Active,1,LEO,USA,USA,Commercial,Communications,Falcon,1 46783U 20074AW  23276.45026445 -.00001280  00000+0 -67053-4 0  9998,2 46783  53.0536 339.0802 0001533 101.2937 258.8225 15.06394168162938,15.06394168,0.0001533,LEO
46784,STARLINK-1882,2020,95.59,260.0,+,53.05,Active,1,LEO,USA,USA,Commercial,Communications,Falcon,1 46784U 20074AX  23276.45299124  .00019325  00000+0  13135-2 0  9992,2 46784  53.0543 339.0589 0001598  97.9005 262.2166 15.06376362162936,15.06376362,0.0001598,LEO
46785,STARLINK-1883,2020,95.59,260.0,+,53.05,Active,1,LEO,USA,USA,Commercial,Communications,Falcon,1 46785U 20074AY  23276.43920738 -.00000034  00000+0  16581-4 0  9991,2 46785  53.0536 339.1304 0001240  97.0471 263.0659 15.06384045162930,15.06384045,0.000124,LEO
46786,STARLINK-1893,2020,95.59,260.0,+,53.05,Active,1,LEO,USA,USA,Commercial,Communications,Falcon,1 46786U 20074AZ  23276.41891618  .00020494  00000+0  13915-2 0  9991,2 46786  53.0543 319.2230 0001388  95.9541 264.1606 15.06380239163211,15.06380239,0.0001388,LEO
46787,STARLINK-1899,2020,95.59,260.0,+,53.05,Active,1,LEO,USA,USA,Commercial,Communications,Falcon,1 46787U 20074BA  23276.41154626  .00023168  00000+0  15703-2 0  9991,2 46787  53.0541 319.2555 0001355  91.8939 268.2206 15.06372141163214,15.06372141,0.0001355,LEO
46788,STARLINK-1929,2020,95.59,260.0,+,53.05,Active,1,LEO,USA,USA,Commercial,Communications,Falcon,1 46788U 20074BB  23276.40417246  .00022326  00000+0  15142-2 0  9993,2 46788  53.0537 319.2887 0001408  93.0419 267.0731 15.06370649163215,15.06370649,0.0001408,LEO
46789,STARLINK-1930,2020,95.59,260.0,+,53.06,Active,1,LEO,USA,USA,Commercial,Communications,Falcon,1 46789U 20074BC  23276.49359527  .00012871  00000+0  88176-3 0  9992,2 46789  53.0557 349.0475 0001524  89.3919 270.7244 15.06385582162484,15.06385582,0.0001524,LEO
46790,STARLINK-1931,2020,95.59,260.0,+,53.05,Active,1,LEO,USA,USA,Commercial,Communications,Falcon,1 46790U 20074BD  23276.52306403 -.00000715  00000+0 -29100-4 0  9992,2 46790  53.0550 348.7526 0001562  93.9399 266.1769 15.06393756162480,15.06393756,0.0001562,LEO
46791,STARLINK-1933,2020,95.59,260.0,+,53.05,Active,1,LEO,USA,USA,Commercial,Communications,Falcon,1 46791U 20074BE  23276.47146233  .00002986  00000+0  21932-3 0  9994,2 46791  53.0544 348.9823 0001386  80.7266 279.3880 15.06386497162807,15.06386497,0.0001386,LEO
46792,STARLINK-1934,2020,95.59,260.0,+,53.05,Active,1,LEO,USA,USA,Commercial,Communications,Falcon,1 46792U 20074BF  23276.49818962  .00000958  00000+0  83243-4 0  9993,2 46792  53.0542 338.8659 0001490  93.1442 266.9717 15.06385739162945,15.06385739,0.000149,LEO
46793,STARLINK-1941,2020,95.59,260.0,+,53.05,Active,1,LEO,USA,USA,Commercial,Communications,Falcon,1 46793U 20074BG  23276.52675786  .00008463  00000+0  58676-3 0  9993,2 46793  53.0540 348.7390 0001814  85.0337 275.0859 15.06374654162480,15.06374654,0.0001814,LEO
46794,STARLINK-1942,2020,95.59,260.0,+,53.06,Active,1,LEO,USA,USA,Commercial,Communications,Falcon,1 46794U 20074BH  23276.46778210  .00000284  00000+0  37974-4 0  9995,2 46794  53.0551 349.0041 0001421  93.5686 266.5465 15.06378850162801,15.0637885,0.0001421,LEO
46796,STARLINK-1944,2020,95.59,260.0,+,53.05,Active,1,LEO,USA,USA,Commercial,Communications,Falcon,1 46796U 20074BK  23276.44290102  .00002197  00000+0  16642-3 0  9997,2 46796  53.0542 339.1137 0001340 104.8542 255.2595 15.06379810162936,15.0637981,0.000134,LEO
46798,STARLINK-1948,2020,95.59,260.0,+,53.06,Active,1,LEO,USA,USA,Commercial,Communications,Falcon,1 46798U 20074BM  23276.54101732  .00019526  00000+0  13269-2 0  9995,2 46798  53.0559   3.6723 0001777  84.5540 275.5652 15.06378413162607,15.06378413,0.0001777,LEO
46805,COSMOS 2547 [GLONASS-K],2020,675.73,1415.0,+,64.61,Active,1,MEO,Russia,Russia/USSR,Commercial/Military,Navigation (Global or Regional Positioning),Soyuz,1 46805U 20075A   23276.15171786  .00000029  00000+0  00000+0 0  9992,2 46805  64.6136 225.5351 0007920 243.6519 116.2528  2.13102810 22852,2.1310281,0.000792,MEO
46807,YAOGAN-30 U,2020,96.45,-1.0,+,34.99,Active,1,LEO,PRC,China,Military,Earth Observation,Long March,1 46807U 20076A   23276.51380236  .00004654  00000+0  44183-3 0  9999,2 46807  34.9950 309.1616 0001480 166.9961 193.0782 14.92990380159903,14.9299038,0.000148,LEO
46808,YAOGAN-30 V,2020,96.45,-1.0,+,35.0,Active,1,LEO,PRC,China,Military,Earth Observation,Long March,1 46808U 20076B   23276.55701893  .00004403  00000+0  41823-3 0  9990,2 46808  34.9955 308.6102 0001696  46.2660 313.8186 14.92980784160020,14.92980784,0.0001696,LEO
46809,YAOGAN-30 W,2020,96.45,-1.0,+,35.0,Active,1,LEO,PRC,China,Military,Earth Observation,Long March,1 46809U 20076C   23276.53576771  .00004522  00000+0  42895-3 0  9996,2 46809  34.9968 308.5367 0006705 119.0570 241.0808 14.93017009159935,14.93017009,0.0006705,LEO
46810,TIANQI-6,2020,96.34,-1.0,+,35.0,Active,0,LEO,PRC,China,Unknown,Unknown,Long March,1 46810U 20076D   23276.44999209  .00005065  00000+0  46005-3 0  9993,2 46810  35.0025 294.3108 0013833 183.0656 176.9966 14.94637229160064,14.94637229,0.0013833,LEO
46812,FLOCK 4V-25,2020,93.08,4.0,+,97.33,Active,1,LEO,French Guiana,USA,Commercial,Earth Observation,ION,1 46812U 20061BP  23276.17106915  .00052880  00000+0  10400-2 0  9999,2 46812  97.3342 349.2804 0002258 190.5629 169.5573 15.47101315163239,15.47101315,0.0002258,LEO
46814,FLOCK 4E'-7,2020,92.99,4.0,+,97.36,Active,1,LEO,New Zealand,USA,Commercial,Earth Observation,Electron,1 46814U 20077B   23276.43305294  .00066648  00000+0  12411-2 0  9999,2 46814  97.3550 343.7900 0007144 159.5657 200.5881 15.48595583162943,15.48595583,0.0007144,LEO
